start=new Date('2022-11-01T00:00:00.000Z').valueOf();
sats=[{"LAUNCH_DATE":"2022-01-19","APOAPSIS":"541.572","CENTER_NAME":"EARTH","MEAN_MOTION":"15.08833365","OBJECT_TYPE":"PAYLOAD","ARG_OF_PERICENTER":"28.6434","FILE":"3639522","SEMIMAJOR_AXIS":"6917.901","SITE":"AFETR","MEAN_ANOMALY":"331.4701","TIME_SYSTEM":"UTC","PERIOD":"95.438","COUNTRY_CODE":"US","REV_AT_EPOCH":"4392","CLASSIFICATION_TYPE":"U","TLE_LINE2":"2 51108  53.2167  29.0682 0002611  28.6434 331.4701 15.08833365 43924","OBJECT_NAME":"STARLINK-3362","INCLINATION":"53.2167","MEAN_MOTION_DOT":"0.00001251","OBJECT_ID":"2022-005E","ECCENTRICITY":"0.00026110","NORAD_CAT_ID":"51108","DECAY_DATE":null,"RCS_SIZE":"LARGE","TLE_LINE1":"1 51108U 22005E   22304.53371389  .00001251  00000-0  96719-4 0  9999","ELEMENT_SET_NO":"999","REF_FRAME":"TEME","BSTAR":"0.00009671900000","EPHEMERIS_TYPE":"0","PERIAPSIS":"537.959","MEAN_ELEMENT_THEORY":"SGP4","RA_OF_ASC_NODE":"29.0682","EPOCH":"2022-10-31T12:48:32.880096","GP_ID":"216618287","MEAN_MOTION_DDOT":"0.0000000000000"},{"LAUNCH_DATE":"2022-01-19","MEAN_MOTION":"15.08841132","CENTER_NAME":"EARTH","APOAPSIS":"541.476","OBJECT_TYPE":"PAYLOAD","ARG_OF_PERICENTER":"30.2570","TIME_SYSTEM":"UTC","SITE":"AFETR","MEAN_ANOMALY":"329.8567","FILE":"3638672","SEMIMAJOR_AXIS":"6917.877","PERIOD":"95.437","CLASSIFICATION_TYPE":"U","REV_AT_EPOCH":"4501","COUNTRY_CODE":"US","OBJECT_NAME":"STARLINK-3358","TLE_LINE2":"2 51109  53.2169  29.5387 0002507  30.2570 329.8567 15.08841132 45012","OBJECT_ID":"2022-005F","INCLINATION":"53.2169","MEAN_MOTION_DOT":"-0.00000014","ECCENTRICITY":"0.00025070","RCS_SIZE":"LARGE","NORAD_CAT_ID":"51109","DECAY_DATE":null,"ELEMENT_SET_NO":"999","TLE_LINE1":"1 51109U 22005F   22304.42425082 -.00000014  00000-0  17263-4 0  9992","EPHEMERIS_TYPE":"0","PERIAPSIS":"538.008","BSTAR":"0.00001726300000","REF_FRAME":"TEME","MEAN_ELEMENT_THEORY":"SGP4","RA_OF_ASC_NODE":"29.5387","MEAN_MOTION_DDOT":"0.0000000000000","GP_ID":"216575088","EPOCH":"2022-10-31T10:10:55.270848"},{"RCS_SIZE":"LARGE","NORAD_CAT_ID":"51110","DECAY_DATE":null,"ECCENTRICITY":"0.00023040","PERIAPSIS":"538.165","EPHEMERIS_TYPE":"0","REF_FRAME":"TEME","BSTAR":"0.00000289920000","ELEMENT_SET_NO":"999","TLE_LINE1":"1 51110U 22005G   22304.85754883 -.00000242  00000-0  28992-5 0  9990","MEAN_ELEMENT_THEORY":"SGP4","MEAN_MOTION_DDOT":"0.0000000000000","GP_ID":"216616786","EPOCH":"2022-10-31T20:34:52.218912","RA_OF_ASC_NODE":"27.6161","MEAN_MOTION":"15.08835432","CENTER_NAME":"EARTH","APOAPSIS":"541.353","LAUNCH_DATE":"2022-01-19","SITE":"AFETR","TIME_SYSTEM":"UTC","MEAN_ANOMALY":"328.6972","FILE":"3639522","SEMIMAJOR_AXIS":"6917.894","OBJECT_TYPE":"PAYLOAD","ARG_OF_PERICENTER":"31.4158","CLASSIFICATION_TYPE":"U","REV_AT_EPOCH":"4397","COUNTRY_CODE":"US","PERIOD":"95.438","OBJECT_ID":"2022-005G","MEAN_MOTION_DOT":"-0.00000242","INCLINATION":"53.2177","OBJECT_NAME":"STARLINK-3344","TLE_LINE2":"2 51110  53.2177  27.6161 0002304  31.4158 328.6972 15.08835432 43978"},{"INCLINATION":"53.2179","MEAN_MOTION_DOT":"0.00008506","OBJECT_ID":"2022-005H","TLE_LINE2":"2 51111  53.2179  29.8089 0002011  47.5015 312.6147 15.08841633 45002","OBJECT_NAME":"STARLINK-3173","COUNTRY_CODE":"US","REV_AT_EPOCH":"4500","CLASSIFICATION_TYPE":"U","PERIOD":"95.437","SEMIMAJOR_AXIS":"6917.875","FILE":"3638672","MEAN_ANOMALY":"312.6147","SITE":"AFETR","TIME_SYSTEM":"UTC","ARG_OF_PERICENTER":"47.5015","OBJECT_TYPE":"PAYLOAD","APOAPSIS":"541.132","CENTER_NAME":"EARTH","MEAN_MOTION":"15.08841633","LAUNCH_DATE":"2022-01-19","EPOCH":"2022-10-31T08:50:03.789888","MEAN_MOTION_DDOT":"0.0000000000000","GP_ID":"216574605","RA_OF_ASC_NODE":"29.8089","MEAN_ELEMENT_THEORY":"SGP4","REF_FRAME":"TEME","BSTAR":"0.00055185000000","PERIAPSIS":"538.349","EPHEMERIS_TYPE":"0","TLE_LINE1":"1 51111U 22005H   22304.36809942  .00008506  00000-0  55185-3 0  9996","ELEMENT_SET_NO":"999","NORAD_CAT_ID":"51111","DECAY_DATE":null,"RCS_SIZE":"LARGE","ECCENTRICITY":"0.00020110"},{"EPOCH":"2022-10-31T17:18:47.676096","GP_ID":"216617788","MEAN_MOTION_DDOT":"0.0000000000000","RA_OF_ASC_NODE":"28.2330","MEAN_ELEMENT_THEORY":"SGP4","BSTAR":"-0.00004225100000","REF_FRAME":"TEME","PERIAPSIS":"538.021","EPHEMERIS_TYPE":"0","TLE_LINE1":"1 51112U 22005J   22304.72138514 -.00000961  00000-0 -42251-4 0  9997","ELEMENT_SET_NO":"999","DECAY_DATE":null,"NORAD_CAT_ID":"51112","RCS_SIZE":"LARGE","ECCENTRICITY":"0.00025230","INCLINATION":"53.2179","MEAN_MOTION_DOT":"-0.00000961","OBJECT_ID":"2022-005J","TLE_LINE2":"2 51112  53.2179  28.2330 0002523  26.4026 333.7094 15.08833252 43956","OBJECT_NAME":"STARLINK-3374","COUNTRY_CODE":"US","REV_AT_EPOCH":"4395","CLASSIFICATION_TYPE":"U","PERIOD":"95.438","FILE":"3639522","SEMIMAJOR_AXIS":"6917.901","SITE":"AFETR","MEAN_ANOMALY":"333.7094","TIME_SYSTEM":"UTC","OBJECT_TYPE":"PAYLOAD","ARG_OF_PERICENTER":"26.4026","APOAPSIS":"541.511","CENTER_NAME":"EARTH","MEAN_MOTION":"15.08833252","LAUNCH_DATE":"2022-01-19"},{"COUNTRY_CODE":"US","REV_AT_EPOCH":"4393","CLASSIFICATION_TYPE":"U","PERIOD":"95.438","INCLINATION":"53.2183","MEAN_MOTION_DOT":"0.00000085","OBJECT_ID":"2022-005K","TLE_LINE2":"2 51113  53.2183  28.5555 0002325  35.3951 324.7195 15.08827199 43933","OBJECT_NAME":"STARLINK-3372","APOAPSIS":"541.393","CENTER_NAME":"EARTH","MEAN_MOTION":"15.08827199","LAUNCH_DATE":"2022-01-19","SEMIMAJOR_AXIS":"6917.920","FILE":"3639522","SITE":"AFETR","TIME_SYSTEM":"UTC","MEAN_ANOMALY":"324.7195","OBJECT_TYPE":"PAYLOAD","ARG_OF_PERICENTER":"35.3951","MEAN_ELEMENT_THEORY":"SGP4","EPOCH":"2022-10-31T15:27:32.203008","GP_ID":"216618538","MEAN_MOTION_DDOT":"0.0000000000000","RA_OF_ASC_NODE":"28.5555","NORAD_CAT_ID":"51113","DECAY_DATE":null,"RCS_SIZE":"LARGE","ECCENTRICITY":"0.00023250","REF_FRAME":"TEME","BSTAR":"0.00002345700000","EPHEMERIS_TYPE":"0","PERIAPSIS":"538.176","TLE_LINE1":"1 51113U 22005K   22304.64412272  .00000085  00000-0  23457-4 0  9997","ELEMENT_SET_NO":"999"},{"ELEMENT_SET_NO":"999","TLE_LINE1":"1 51114U 22005L   22304.53002297 -.00001069  00000-0 -49103-4 0  9999","EPHEMERIS_TYPE":"0","PERIAPSIS":"538.225","BSTAR":"-0.00004910300000","REF_FRAME":"TEME","ECCENTRICITY":"0.00022440","RCS_SIZE":"LARGE","DECAY_DATE":null,"NORAD_CAT_ID":"51114","RA_OF_ASC_NODE":"29.0859","MEAN_MOTION_DDOT":"0.0000000000000","GP_ID":"216617286","EPOCH":"2022-10-31T12:43:13.984608","MEAN_ELEMENT_THEORY":"SGP4","ARG_OF_PERICENTER":"34.6153","OBJECT_TYPE":"PAYLOAD","MEAN_ANOMALY":"325.4985","SITE":"AFETR","TIME_SYSTEM":"UTC","FILE":"3639522","SEMIMAJOR_AXIS":"6917.912","LAUNCH_DATE":"2022-01-19","MEAN_MOTION":"15.08829584","CENTER_NAME":"EARTH","APOAPSIS":"541.330","OBJECT_NAME":"STARLINK-3375","TLE_LINE2":"2 51114  53.2183  29.0859 0002244  34.6153 325.4985 15.08829584 43927","OBJECT_ID":"2022-005L","INCLINATION":"53.2183","MEAN_MOTION_DOT":"-0.00001069","PERIOD":"95.438","CLASSIFICATION_TYPE":"U","REV_AT_EPOCH":"4392","COUNTRY_CODE":"US"},{"INCLINATION":"53.2195","MEAN_MOTION_DOT":"0.00000587","OBJECT_ID":"2022-005M","TLE_LINE2":"2 51115  53.2195  28.5853 0001931  39.7492 320.3641 15.08836480 43930","OBJECT_NAME":"STARLINK-3397","COUNTRY_CODE":"US","REV_AT_EPOCH":"4393","CLASSIFICATION_TYPE":"U","PERIOD":"95.438","SEMIMAJOR_AXIS":"6917.891","FILE":"3639522","MEAN_ANOMALY":"320.3641","SITE":"AFETR","TIME_SYSTEM":"UTC","ARG_OF_PERICENTER":"39.7492","OBJECT_TYPE":"PAYLOAD","APOAPSIS":"541.092","CENTER_NAME":"EARTH","MEAN_MOTION":"15.08836480","LAUNCH_DATE":"2022-01-19","EPOCH":"2022-10-31T15:16:54.977952","MEAN_MOTION_DDOT":"0.0000000000000","GP_ID":"216617037","RA_OF_ASC_NODE":"28.5853","MEAN_ELEMENT_THEORY":"SGP4","BSTAR":"0.00005498700000","REF_FRAME":"TEME","EPHEMERIS_TYPE":"0","PERIAPSIS":"538.420","TLE_LINE1":"1 51115U 22005M   22304.63674743  .00000587  00000-0  54987-4 0  9990","ELEMENT_SET_NO":"999","DECAY_DATE":null,"NORAD_CAT_ID":"51115","RCS_SIZE":"LARGE","ECCENTRICITY":"0.00019310"},{"RA_OF_ASC_NODE":"29.1232","MEAN_MOTION_DDOT":"0.0000000000000","GP_ID":"216618288","EPOCH":"2022-10-31T12:27:19.360512","MEAN_ELEMENT_THEORY":"SGP4","ELEMENT_SET_NO":"999","TLE_LINE1":"1 51116U 22005N   22304.51897408  .00000262  00000-0  34579-4 0  9998","PERIAPSIS":"538.181","EPHEMERIS_TYPE":"0","BSTAR":"0.00003457900000","REF_FRAME":"TEME","ECCENTRICITY":"0.00022480","RCS_SIZE":"LARGE","NORAD_CAT_ID":"51116","DECAY_DATE":null,"OBJECT_NAME":"STARLINK-3243","TLE_LINE2":"2 51116  53.2191  29.1232 0002248  33.7611 326.3524 15.08843058 43917","OBJECT_ID":"2022-005N","INCLINATION":"53.2191","MEAN_MOTION_DOT":"0.00000262","PERIOD":"95.437","CLASSIFICATION_TYPE":"U","REV_AT_EPOCH":"4391","COUNTRY_CODE":"US","ARG_OF_PERICENTER":"33.7611","OBJECT_TYPE":"PAYLOAD","MEAN_ANOMALY":"326.3524","SITE":"AFETR","TIME_SYSTEM":"UTC","FILE":"3639522","SEMIMAJOR_AXIS":"6917.871","LAUNCH_DATE":"2022-01-19","MEAN_MOTION":"15.08843058","CENTER_NAME":"EARTH","APOAPSIS":"541.291"},{"SEMIMAJOR_AXIS":"6917.902","FILE":"3639522","MEAN_ANOMALY":"322.4757","SITE":"AFETR","TIME_SYSTEM":"UTC","OBJECT_TYPE":"PAYLOAD","ARG_OF_PERICENTER":"37.6399","APOAPSIS":"541.390","MEAN_MOTION":"15.08833066","CENTER_NAME":"EARTH","LAUNCH_DATE":"2022-01-19","MEAN_MOTION_DOT":"-0.00000469","INCLINATION":"53.2190","OBJECT_ID":"2022-005P","OBJECT_NAME":"STARLINK-3391","TLE_LINE2":"2 51117  53.2190  28.6656 0002346  37.6399 322.4757 15.08833066 43931","REV_AT_EPOCH":"4393","COUNTRY_CODE":"US","CLASSIFICATION_TYPE":"U","PERIOD":"95.438","BSTAR":"-0.00001133200000","REF_FRAME":"TEME","PERIAPSIS":"538.144","EPHEMERIS_TYPE":"0","TLE_LINE1":"1 51117U 22005P   22304.62202198 -.00000469  00000-0 -11332-4 0  9990","ELEMENT_SET_NO":"999","RCS_SIZE":"LARGE","NORAD_CAT_ID":"51117","DECAY_DATE":null,"ECCENTRICITY":"0.00023460","EPOCH":"2022-10-31T14:55:42.699072","GP_ID":"216618039","MEAN_MOTION_DDOT":"0.0000000000000","RA_OF_ASC_NODE":"28.6656","MEAN_ELEMENT_THEORY":"SGP4"}];
